NORAD_CAT_ID,OBJECT_NAME,OBJECT_TYPE,EPOCH,MEAN_MOTION,ECCENTRICITY,INCLINATION,RA_OF_ASC_NODE,ARG_OF_PERICENTER,MEAN_ANOMALY,BSTAR,MEAN_MOTION_DOT,MEAN_MOTION_DDOT,TLE_LINE0,TLE_LINE1,TLE_LINE2,SEMIMAJOR_AXIS,PERIOD,APOGEE,PERIGEE,DECAYED
53424.0,STARLINK-4532,PAYLOAD,2023-12-29 14:48:21,15.08842022,0.0001237,53.218,110.2759,95.4666,264.6467,4.8189e-05,4.79e-06,0.0,0 STARLINK-4532,1 53424U 22097AN  23363.61691934  .00000479  00000-0  48189-4 0  9998,2 53424  53.2180 110.2759 0001237  95.4666 264.6467 15.08842022 77712,6917.874,95.437,540.595,538.883,0.0
53424.0,STARLINK-4532,PAYLOAD,2023-12-30 11:28:22,15.08837365,0.0001363,53.2185,106.4127,80.6305,279.4841,5.4858e-05,5.85e-06,0.0,0 STARLINK-4532,1 53424U 22097AN  23364.47804351  .00000585  00000-0  54858-4 0  9990,2 53424  53.2185 106.4127 0001363  80.6305 279.4841 15.08837365 77364,6917.888,95.438,540.696,538.811,0.0
53424.0,STARLINK-4532,PAYLOAD,2023-12-30 14:39:09,15.08841128,0.0001466,53.2182,105.8179,63.9669,296.1474,7.6901e-05,9.36e-06,0.0,0 STARLINK-4532,1 53424U 22097AN  23364.61052137  .00000936  00000-0  76901-4 0  9996,2 53424  53.2182 105.8179 0001466  63.9669 296.1474 15.08841128 77867,6917.877,95.437,540.756,538.728,0.0
53424.0,STARLINK-4532,PAYLOAD,2023-12-31 12:54:33,15.08840944,0.0001485,53.2178,101.6549,66.8604,293.2544,-1.7837e-05,-5.72e-06,0.0,0 STARLINK-4532,1 53424U 22097AN  23365.53788496 -.00000572  00000-0 -17837-4 0  9993,2 53424  53.2178 101.6549 0001485  66.8604 293.2544 15.08840944 77523,6917.878,95.437,540.77,538.715,0.0
53424.0,STARLINK-4532,PAYLOAD,2024-01-01 12:45:19,15.08843369,0.0001458,53.2175,97.1936,76.1134,284.002,4.3083e-05,3.98e-06,0.0,0 STARLINK-4532,1 53424U 22097AN  24001.53147996  .00000398  00000-0  43083-4 0  9991,2 53424  53.2175  97.1936 0001458  76.1134 284.0020 15.08843369 78152,6917.87,95.437,540.744,538.726,0.0
53424.0,STARLINK-4532,PAYLOAD,2024-01-01 15:56:05,15.08849458,0.0001478,53.217,96.5972,90.9012,269.215,4.8316e-05,4.81e-06,0.0,0 STARLINK-4532,1 53424U 22097AN  24001.66395463  .00000481  00000-0  48316-4 0  9996,2 53424  53.2170  96.5972 0001478  90.9012 269.2150 15.08849458 77693,6917.851,95.437,540.739,538.694,0.0
53424.0,STARLINK-4532,PAYLOAD,2024-01-02 11:00:43,15.08841163,0.0001584,53.2182,93.0275,100.0717,260.0454,3.0351e-05,1.95e-06,0.0,0 STARLINK-4532,1 53424U 22097AN  24002.45884009  .00000195  00000-0  30351-4 0  9995,2 53424  53.2182  93.0275 0001584 100.0717 260.0454 15.08841163 77812,6917.877,95.437,540.838,538.646,0.0
53424.0,STARLINK-4532,PAYLOAD,2024-01-03 10:51:31,15.08835519,0.0001502,53.2185,88.5711,101.4802,258.6359,-7.8275e-05,-1.533e-05,0.0,0 STARLINK-4532,1 53424U 22097AN  24003.45244923 -.00001533  00000-0 -78275-4 0  9997,2 53424  53.2185  88.5711 0001502 101.4802 258.6359 15.08835519 77960,6917.894,95.438,540.798,538.72,0.0
53424.0,STARLINK-4532,PAYLOAD,2024-01-03 12:26:54,15.08835905,0.0001516,53.2186,88.2738,102.1099,258.0064,-7.2932e-05,-1.448e-05,0.0,0 STARLINK-4532,1 53424U 22097AN  24003.51868889 -.00001448  00000-0 -72932-4 0  9996,2 53424  53.2186  88.2738 0001516 102.1099 258.0064 15.08835905 78459,6917.893,95.438,540.807,538.709,0.0
53424.0,STARLINK-4532,PAYLOAD,2024-01-04 12:17:41,15.08843472,0.0001525,53.2176,83.8108,95.7188,264.3978,6.7553e-05,7.87e-06,0.0,0 STARLINK-4532,1 53424U 22097AN  24004.51228162  .00000787  00000-0  67553-4 0  9997,2 53424  53.2176  83.8108 0001525  95.7188 264.3978 15.08843472 78122,6917.87,95.437,540.79,538.68,0.0
53424.0,STARLINK-4532,PAYLOAD,2024-01-05 10:33:06,15.0882916,0.000157,53.218,79.6462,102.2727,257.8441,1.6597e-05,-2.4e-07,0.0,0 STARLINK-4532,1 53424U 22097AN  24005.43965527 -.00000024  00000-0  16597-4 0  9999,2 53424  53.2180  79.6462 0001570 102.2727 257.8441 15.08829160 78261,6917.914,95.438,540.865,538.692,0.0
53424.0,STARLINK-4532,PAYLOAD,2024-01-06 10:23:52,15.08846076,0.0001578,53.2185,75.1833,100.2151,259.9019,-1.4713e-05,-5.22e-06,0.0,0 STARLINK-4532,1 53424U 22097AN  24006.43324821 -.00000522  00000-0 -14713-4 0  9998,2 53424  53.2185  75.1833 0001578 100.2151 259.9019 15.08846076 78412,6917.862,95.437,540.818,538.635,0.0
53424.0,STARLINK-4532,PAYLOAD,2024-01-06 13:34:38,15.08851303,0.0001571,53.2189,74.5872,101.1471,258.9698,-2.243e-05,-6.45e-06,0.0,0 STARLINK-4532,1 53424U 22097AN  24006.56572455 -.00000645  00000-0 -22430-4 0  9991,2 53424  53.2189  74.5872 0001571 101.1471 258.9698 15.08851303 78916,6917.846,95.437,540.798,538.624,0.0
53424.0,STARLINK-4532,PAYLOAD,2024-01-07 11:50:03,15.08838175,0.000152,53.2184,70.4361,80.9251,279.1913,4.3916e-05,4.11e-06,0.0,0 STARLINK-4532,1 53424U 22097AN  24007.49309380  .00000411  00000-0  43916-4 0  9990,2 53424  53.2184  70.4361 0001520  80.9251 279.1913 15.08838175 78572,6917.886,95.438,540.802,538.699,0.0
53424.0,STARLINK-4532,PAYLOAD,2024-01-07 13:25:26,15.08840155,0.0001648,53.2199,70.1294,102.5401,257.5776,4.2305e-05,3.85e-06,0.0,0 STARLINK-4532,1 53424U 22097AN  24007.55933093  .00000385  00000-0  42305-4 0  9992,2 53424  53.2199  70.1294 0001648 102.5401 257.5776 15.08840155 79062,6917.88,95.438,540.885,538.605,0.0
53424.0,STARLINK-4532,PAYLOAD,2024-01-08 10:05:26,15.08848114,0.0001513,53.218,66.2681,88.9485,271.168,-1.4635e-05,-5.21e-06,0.0,0 STARLINK-4532,1 53424U 22097AN  24008.42044726 -.00000521  00000-0 -14635-4 0  9994,2 53424  53.2180  66.2681 0001513  88.9485 271.1680 15.08848114 78718,6917.856,95.437,540.767,538.674,0.0
53424.0,STARLINK-4532,PAYLOAD,2024-01-09 09:56:13,15.08842973,0.0001534,53.2177,61.8077,84.8891,275.2276,-5.1128e-06,-3.69e-06,0.0,0 STARLINK-4532,1 53424U 22097AN  24009.41404966 -.00000369  00000-0 -51128-5 0  9999,2 53424  53.2177  61.8077 0001534  84.8891 275.2276 15.08842973 78862,6917.871,95.437,540.798,538.675,0.0
53424.0,STARLINK-4532,PAYLOAD,2024-01-10 09:47:01,15.08838866,0.0001644,53.2176,57.3466,100.5076,259.6102,-1.4745e-05,-5.23e-06,0.0,0 STARLINK-4532,1 53424U 22097AN  24010.40765080 -.00000523  00000-0 -14745-4 0  9992,2 53424  53.2176  57.3466 0001644 100.5076 259.6102 15.08838866 79496,6917.884,95.438,540.886,538.612,0.0
53424.0,STARLINK-4532,PAYLOAD,2024-01-11 03:16:15,15.08837251,0.0001733,53.2181,54.0767,106.0244,254.0939,3.7355e-05,3.06e-06,0.0,0 STARLINK-4532,1 53424U 22097AN  24011.13629031  .00000306  00000-0  37355-4 0  9997,2 53424  53.2181  54.0767 0001733 106.0244 254.0939 15.08837251 79121,6917.889,95.438,540.953,538.555,0.0
53424.0,STARLINK-4532,PAYLOAD,2024-01-11 09:37:47,15.08842029,0.0001788,53.2186,52.8885,107.9554,252.1634,7.5287e-05,9.1e-06,0.0,0 STARLINK-4532,1 53424U 22097AN  24011.40124615  .00000910  00000-0  75287-4 0  9992,2 53424  53.2186  52.8885 0001788 107.9554 252.1634 15.08842029 79644,6917.874,95.437,540.976,538.502,0.0
53424.0,STARLINK-4532,PAYLOAD,2024-01-12 07:53:12,15.08829719,0.0001822,53.2199,48.7286,110.1259,249.9929,3.3416e-06,-2.35e-06,0.0,0 STARLINK-4532,1 53424U 22097AN  24012.32861908 -.00000235  00000-0  33416-5 0  9997,2 53424  53.2199  48.7286 0001822 110.1259 249.9929 15.08829719 79309,6917.912,95.438,541.037,538.516,0.0
53424.0,STARLINK-4532,PAYLOAD,2024-01-13 10:54:45,15.08844682,0.0001754,53.2185,43.6672,110.2038,249.9143,3.722e-05,3.04e-06,0.0,0 STARLINK-4532,1 53424U 22097AN  24013.45469282  .00000304  00000-0  37220-4 0  9993,2 53424  53.2185  43.6672 0001754 110.2038 249.9143 15.08844682 79479,6917.866,95.437,540.944,538.518,0.0
53424.0,STARLINK-4532,PAYLOAD,2024-01-14 10:45:32,15.08840754,0.0001735,53.2195,39.201,90.3725,269.7466,0.00012959,1.775e-05,0.0,0 STARLINK-4532,1 53424U 22097AN  24014.44829567  .00001775  00000-0  12959-3 0  9993,2 53424  53.2195  39.2010 0001735  90.3725 269.7466 15.08840754 79628,6917.878,95.438,540.943,538.543,0.0
53424.0,STARLINK-4532,PAYLOAD,2024-01-15 01:04:01,15.0883989,0.0001482,53.2186,36.5276,106.9105,253.2049,-1.142e-05,-4.7e-06,0.0,0 STARLINK-4532,1 53424U 22097AN  24015.04446173 -.00000470  00000-0 -11420-4 0  9994,2 53424  53.2186  36.5276 0001482 106.9105 253.2049 15.08839890 79711,6917.881,95.438,540.771,538.72,0.0
53424.0,STARLINK-4532,PAYLOAD,2024-01-15 09:00:56,15.08848396,0.000185,53.2185,35.0465,83.7101,276.4102,3.9258e-05,3.37e-06,0.0,0 STARLINK-4532,1 53424U 22097AN  24015.37565598  .00000337  00000-0  39258-4 0  9992,2 53424  53.2185  35.0465 0001850  83.7101 276.4102 15.08848396 79764,6917.855,95.437,541.0,538.44,0.0
53424.0,STARLINK-4532,PAYLOAD,2024-01-16 00:54:49,15.08836358,0.0001638,53.2202,32.0685,90.3913,269.7267,-8.5141e-05,-1.643e-05,0.0,0 STARLINK-4532,1 53424U 22097AN  24016.03806842 -.00001643  00000-0 -85141-4 0  9991,2 53424  53.2202  32.0685 0001638  90.3913 269.7267 15.08836358 79867,6917.892,95.438,540.89,538.623,0.0
53424.0,STARLINK-4532,PAYLOAD,2024-01-16 07:16:21,15.08838174,0.0001744,53.2197,30.8812,85.684,274.4351,-6.6572e-05,-1.347e-05,0.0,0 STARLINK-4532,1 53424U 22097AN  24016.30302737 -.00001347  00000-0 -66572-4 0  9993,2 53424  53.2197  30.8812 0001744  85.6840 274.4351 15.08838174 80386,6917.886,95.438,540.957,538.544,0.0
53424.0,STARLINK-4532,PAYLOAD,2024-01-17 03:56:21,15.08845079,0.0001655,53.2192,27.0153,94.588,265.5302,-4.0207e-06,-3.52e-06,0.0,0 STARLINK-4532,1 53424U 22097AN  24017.16414197 -.00000352  00000-0 -40207-5 0  9995,2 53424  53.2192  27.0153 0001655  94.5880 265.5302 15.08845079 80032,6917.865,95.437,540.875,538.585,0.0
53424.0,STARLINK-4532,PAYLOAD,2024-01-17 07:07:07,15.08847397,0.0001692,53.2194,26.4206,96.5846,263.5339,1.9079e-05,1.6e-07,0.0,0 STARLINK-4532,1 53424U 22097AN  24017.29661969  .00000016  00000-0  19079-4 0  9997,2 53424  53.2194  26.4206 0001692  96.5846 263.5339 15.08847397 80539,6917.858,95.437,540.893,538.552,0.0
53424.0,STARLINK-4532,PAYLOAD,2024-01-18 03:47:09,15.08835048,0.0001477,53.2182,22.5538,94.7921,265.324,6.2329e-05,7.04e-06,0.0,0 STARLINK-4532,1 53424U 22097AN  24018.15774666  .00000704  00000-0  62329-4 0  9992,2 53424  53.2182  22.5538 0001477  94.7921 265.3240 15.08835048 80188,6917.896,95.438,540.782,538.739,0.0
